start=new Date('2022-08-06T00:00:00.000Z').valueOf();
sats=[{"TIME_SYSTEM":"UTC","LAUNCH_DATE":"2022-07-22","NORAD_CAT_ID":"53219","EPHEMERIS_TYPE":"0","TLE_LINE1":"1 53219U 22084AG  22217.91667824 -.01052884  00000-0 -11708-1 0  9991","GP_ID":"209660559","ELEMENT_SET_NO":"999","ARG_OF_PERICENTER":"112.7519","EPOCH":"2022-08-05T22:00:00.999936","SEMIMAJOR_AXIS":"6749.728","REF_FRAME":"TEME","APOAPSIS":"372.834","INCLINATION":"97.6554","MEAN_MOTION_DDOT":"0.0000000000000","RA_OF_ASC_NODE":"276.6576","FILE":"3530042","CENTER_NAME":"EARTH","RCS_SIZE":"LARGE","DECAY_DATE":null,"SITE":"AFWTR","PERIOD":"91.979","TLE_LINE2":"2 53219  97.6554 276.6576 0001839 112.7519 147.8336 15.65573284  1306","OBJECT_ID":"2022-084AG","OBJECT_NAME":"STARLINK-4373","CLASSIFICATION_TYPE":"U","BSTAR":"-0.01170800000000","MEAN_MOTION":"15.65573284","REV_AT_EPOCH":"130","MEAN_MOTION_DOT":"-0.01052884","MEAN_ELEMENT_THEORY":"SGP4","MEAN_ANOMALY":"147.8336","ECCENTRICITY":"0.00018390","COUNTRY_CODE":"US","PERIAPSIS":"370.351","OBJECT_TYPE":"PAYLOAD"},{"ARG_OF_PERICENTER":"97.6610","ELEMENT_SET_NO":"999","TLE_LINE1":"1 53220U 22084AH  22217.91667824 -.01052095  00000-0 -11712-1 0  9992","GP_ID":"209660178","EPHEMERIS_TYPE":"0","NORAD_CAT_ID":"53220","LAUNCH_DATE":"2022-07-22","TIME_SYSTEM":"UTC","RCS_SIZE":"LARGE","CENTER_NAME":"EARTH","FILE":"3530042","MEAN_MOTION_DDOT":"0.0000000000000","RA_OF_ASC_NODE":"276.6611","INCLINATION":"97.6554","APOAPSIS":"372.859","REF_FRAME":"TEME","SEMIMAJOR_AXIS":"6749.809","EPOCH":"2022-08-05T22:00:00.999936","REV_AT_EPOCH":"130","MEAN_MOTION":"15.65544799","BSTAR":"-0.01171200000000","CLASSIFICATION_TYPE":"U","OBJECT_NAME":"STARLINK-4363","OBJECT_ID":"2022-084AH","TLE_LINE2":"2 53220  97.6554 276.6611 0001755  97.6610 160.6535 15.65544799  1301","PERIOD":"91.981","SITE":"AFWTR","DECAY_DATE":null,"OBJECT_TYPE":"PAYLOAD","PERIAPSIS":"370.490","COUNTRY_CODE":"US","ECCENTRICITY":"0.00017550","MEAN_ANOMALY":"160.6535","MEAN_ELEMENT_THEORY":"SGP4","MEAN_MOTION_DOT":"-0.01052095"},{"REF_FRAME":"TEME","EPOCH":"2022-08-05T22:00:00.999936","SEMIMAJOR_AXIS":"6749.708","CENTER_NAME":"EARTH","FILE":"3530042","RCS_SIZE":"LARGE","APOAPSIS":"372.785","INCLINATION":"97.6554","RA_OF_ASC_NODE":"276.6577","MEAN_MOTION_DDOT":"0.0000000000000","EPHEMERIS_TYPE":"0","GP_ID":"209659908","TLE_LINE1":"1 53221U 22084AJ  22217.91667824 -.01052562  00000-0 -11701-1 0  9990","TIME_SYSTEM":"UTC","LAUNCH_DATE":"2022-07-22","NORAD_CAT_ID":"53221","ARG_OF_PERICENTER":"107.3738","ELEMENT_SET_NO":"999","MEAN_MOTION_DOT":"-0.01052562","PERIAPSIS":"370.361","OBJECT_TYPE":"PAYLOAD","MEAN_ANOMALY":"153.7794","MEAN_ELEMENT_THEORY":"SGP4","ECCENTRICITY":"0.00017960","COUNTRY_CODE":"US","PERIOD":"91.979","TLE_LINE2":"2 53221  97.6554 276.6577 0001796 107.3738 153.7794 15.65580122  1308","OBJECT_ID":"2022-084AJ","OBJECT_NAME":"STARLINK-4377","SITE":"AFWTR","DECAY_DATE":null,"MEAN_MOTION":"15.65580122","REV_AT_EPOCH":"130","CLASSIFICATION_TYPE":"U","BSTAR":"-0.01170100000000"},{"MEAN_MOTION_DOT":"-0.01053100","COUNTRY_CODE":"US","ECCENTRICITY":"0.00018800","MEAN_ANOMALY":"142.8927","MEAN_ELEMENT_THEORY":"SGP4","OBJECT_TYPE":"PAYLOAD","PERIAPSIS":"370.363","SITE":"AFWTR","DECAY_DATE":null,"OBJECT_ID":"2022-084AK","OBJECT_NAME":"STARLINK-4381","TLE_LINE2":"2 53222  97.6554 276.6592 0001880 116.5574 142.8927 15.65559393  1303","PERIOD":"91.980","BSTAR":"-0.01171700000000","CLASSIFICATION_TYPE":"U","MEAN_MOTION":"15.65559393","REV_AT_EPOCH":"130","SEMIMAJOR_AXIS":"6749.767","EPOCH":"2022-08-05T22:00:00.999936","REF_FRAME":"TEME","MEAN_MOTION_DDOT":"0.0000000000000","RA_OF_ASC_NODE":"276.6592","INCLINATION":"97.6554","APOAPSIS":"372.901","RCS_SIZE":"LARGE","FILE":"3530042","CENTER_NAME":"EARTH","LAUNCH_DATE":"2022-07-22","NORAD_CAT_ID":"53222","TIME_SYSTEM":"UTC","GP_ID":"209660049","TLE_LINE1":"1 53222U 22084AK  22217.91667824 -.01053100  00000-0 -11717-1 0  9997","EPHEMERIS_TYPE":"0","ELEMENT_SET_NO":"999","ARG_OF_PERICENTER":"116.5574"},{"MEAN_MOTION_DOT":"-0.01052527","PERIAPSIS":"370.321","OBJECT_TYPE":"PAYLOAD","MEAN_ANOMALY":"154.6790","MEAN_ELEMENT_THEORY":"SGP4","ECCENTRICITY":"0.00017950","COUNTRY_CODE":"US","PERIOD":"91.978","TLE_LINE2":"2 53223  97.6554 276.6558 0001795 107.6092 154.6790 15.65594148  1303","OBJECT_NAME":"STARLINK-4354","OBJECT_ID":"2022-084AL","DECAY_DATE":null,"SITE":"AFWTR","MEAN_MOTION":"15.65594148","REV_AT_EPOCH":"130","CLASSIFICATION_TYPE":"U","BSTAR":"-0.01169400000000","REF_FRAME":"TEME","EPOCH":"2022-08-05T22:00:00.999936","SEMIMAJOR_AXIS":"6749.668","FILE":"3530042","CENTER_NAME":"EARTH","RCS_SIZE":"MEDIUM","APOAPSIS":"372.744","INCLINATION":"97.6554","RA_OF_ASC_NODE":"276.6558","MEAN_MOTION_DDOT":"0.0000000000000","EPHEMERIS_TYPE":"0","TLE_LINE1":"1 53223U 22084AL  22217.91667824 -.01052527  00000-0 -11694-1 0  9994","GP_ID":"209660430","TIME_SYSTEM":"UTC","LAUNCH_DATE":"2022-07-22","NORAD_CAT_ID":"53223","ARG_OF_PERICENTER":"107.6092","ELEMENT_SET_NO":"999"},{"SEMIMAJOR_AXIS":"6749.748","EPOCH":"2022-08-05T22:00:00.999936","REF_FRAME":"TEME","RA_OF_ASC_NODE":"276.6583","MEAN_MOTION_DDOT":"0.0000000000000","INCLINATION":"97.6554","APOAPSIS":"372.813","RCS_SIZE":"LARGE","FILE":"3530042","CENTER_NAME":"EARTH","LAUNCH_DATE":"2022-07-22","NORAD_CAT_ID":"53224","TIME_SYSTEM":"UTC","TLE_LINE1":"1 53224U 22084AM  22217.91667824 -.01052342  00000-0 -11705-1 0  9993","GP_ID":"209659788","EPHEMERIS_TYPE":"0","ELEMENT_SET_NO":"999","ARG_OF_PERICENTER":"103.8551","MEAN_MOTION_DOT":"-0.01052342","ECCENTRICITY":"0.00017770","COUNTRY_CODE":"US","MEAN_ANOMALY":"156.1629","MEAN_ELEMENT_THEORY":"SGP4","OBJECT_TYPE":"PAYLOAD","PERIAPSIS":"370.414","SITE":"AFWTR","DECAY_DATE":null,"OBJECT_NAME":"STARLINK-4356","OBJECT_ID":"2022-084AM","TLE_LINE2":"2 53224  97.6554 276.6583 0001777 103.8551 156.1629 15.65566000  1304","PERIOD":"91.980","BSTAR":"-0.01170500000000","CLASSIFICATION_TYPE":"U","MEAN_MOTION":"15.65566000","REV_AT_EPOCH":"130"},{"REF_FRAME":"TEME","SEMIMAJOR_AXIS":"6749.627","EPOCH":"2022-08-05T22:00:00.999936","FILE":"3530042","CENTER_NAME":"EARTH","RCS_SIZE":"LARGE","INCLINATION":"97.6554","APOAPSIS":"372.716","MEAN_MOTION_DDOT":"0.0000000000000","RA_OF_ASC_NODE":"276.6541","TLE_LINE1":"1 53225U 22084AN  22217.91667824 -.01052665  00000-0 -11689-1 0  9993","GP_ID":"209660300","EPHEMERIS_TYPE":"0","LAUNCH_DATE":"2022-07-22","NORAD_CAT_ID":"53225","TIME_SYSTEM":"UTC","ARG_OF_PERICENTER":"110.3807","ELEMENT_SET_NO":"999","MEAN_MOTION_DOT":"-0.01052665","PERIAPSIS":"370.268","OBJECT_TYPE":"PAYLOAD","ECCENTRICITY":"0.00018140","COUNTRY_CODE":"US","MEAN_ANOMALY":"153.0421","MEAN_ELEMENT_THEORY":"SGP4","TLE_LINE2":"2 53225  97.6554 276.6541 0001814 110.3807 153.0421 15.65608254  1302","PERIOD":"91.977","OBJECT_ID":"2022-084AN","OBJECT_NAME":"STARLINK-4358","SITE":"AFWTR","DECAY_DATE":null,"REV_AT_EPOCH":"130","MEAN_MOTION":"15.65608254","BSTAR":"-0.01168900000000","CLASSIFICATION_TYPE":"U"},{"MEAN_MOTION_DOT":"-0.01052762","COUNTRY_CODE":"US","ECCENTRICITY":"0.00018240","MEAN_ELEMENT_THEORY":"SGP4","MEAN_ANOMALY":"150.4842","PERIAPSIS":"370.321","OBJECT_TYPE":"PAYLOAD","DECAY_DATE":null,"SITE":"AFWTR","TLE_LINE2":"2 53226  97.6554 276.6567 0001824 111.2365 150.4842 15.65587252  1303","PERIOD":"91.978","OBJECT_NAME":"STARLINK-4359","OBJECT_ID":"2022-084AP","BSTAR":"-0.01170000000000","CLASSIFICATION_TYPE":"U","MEAN_MOTION":"15.65587252","REV_AT_EPOCH":"130","SEMIMAJOR_AXIS":"6749.687","EPOCH":"2022-08-05T22:00:00.999936","REF_FRAME":"TEME","INCLINATION":"97.6554","APOAPSIS":"372.784","RA_OF_ASC_NODE":"276.6567","MEAN_MOTION_DDOT":"0.0000000000000","FILE":"3530042","CENTER_NAME":"EARTH","RCS_SIZE":"LARGE","NORAD_CAT_ID":"53226","LAUNCH_DATE":"2022-07-22","TIME_SYSTEM":"UTC","GP_ID":"209659658","TLE_LINE1":"1 53226U 22084AP  22217.91667824 -.01052762  00000-0 -11700-1 0  9996","EPHEMERIS_TYPE":"0","ELEMENT_SET_NO":"999","ARG_OF_PERICENTER":"111.2365"},{"SITE":"AFWTR","DECAY_DATE":null,"OBJECT_ID":"2022-084AQ","OBJECT_NAME":"STARLINK-4366","PERIOD":"91.976","TLE_LINE2":"2 53227  97.6554 276.6533 0001833 112.9181 151.6391 15.65622350  1302","CLASSIFICATION_TYPE":"U","BSTAR":"-0.01168400000000","MEAN_MOTION":"15.65622350","REV_AT_EPOCH":"130","MEAN_MOTION_DOT":"-0.01052803","MEAN_ANOMALY":"151.6391","MEAN_ELEMENT_THEORY":"SGP4","COUNTRY_CODE":"US","ECCENTRICITY":"0.00018330","OBJECT_TYPE":"PAYLOAD","PERIAPSIS":"370.214","TIME_SYSTEM":"UTC","NORAD_CAT_ID":"53227","LAUNCH_DATE":"2022-07-22","EPHEMERIS_TYPE":"0","TLE_LINE1":"1 53227U 22084AQ  22217.91667824 -.01052803  00000-0 -11684-1 0  9994","GP_ID":"209660560","ELEMENT_SET_NO":"999","ARG_OF_PERICENTER":"112.9181","EPOCH":"2022-08-05T22:00:00.999936","SEMIMAJOR_AXIS":"6749.586","REF_FRAME":"TEME","MEAN_MOTION_DDOT":"0.0000000000000","RA_OF_ASC_NODE":"276.6533","APOAPSIS":"372.689","INCLINATION":"97.6554","RCS_SIZE":"MEDIUM","CENTER_NAME":"EARTH","FILE":"3530042"},{"GP_ID":"209660179","TLE_LINE1":"1 53228U 22084AR  22217.91667824 -.01052902  00000-0 -11695-1 0  9997","EPHEMERIS_TYPE":"0","NORAD_CAT_ID":"53228","LAUNCH_DATE":"2022-07-22","TIME_SYSTEM":"UTC","ARG_OF_PERICENTER":"114.0014","ELEMENT_SET_NO":"999","REF_FRAME":"TEME","SEMIMAJOR_AXIS":"6749.647","EPOCH":"2022-08-05T22:00:00.999936","FILE":"3530042","CENTER_NAME":"EARTH","RCS_SIZE":"MEDIUM","INCLINATION":"97.6554","APOAPSIS":"372.758","MEAN_MOTION_DDOT":"0.0000000000000","RA_OF_ASC_NODE":"276.6548","TLE_LINE2":"2 53228  97.6554 276.6548 0001847 114.0014 148.8540 15.65601354  1307","PERIOD":"91.977","OBJECT_NAME":"STARLINK-4365","OBJECT_ID":"2022-084AR","SITE":"AFWTR","DECAY_DATE":null,"REV_AT_EPOCH":"130","MEAN_MOTION":"15.65601354","BSTAR":"-0.01169500000000","CLASSIFICATION_TYPE":"U","MEAN_MOTION_DOT":"-0.01052902","PERIAPSIS":"370.265","OBJECT_TYPE":"PAYLOAD","ECCENTRICITY":"0.00018470","COUNTRY_CODE":"US","MEAN_ELEMENT_THEORY":"SGP4","MEAN_ANOMALY":"148.8540"}];
